[{"OBJECT_NAME":"STARLINK-3848","OBJECT_ID":"2022-045AH","EPOCH":"2026-03-09T15:40:23.686752","MEAN_MOTION":15.08831406,"ECCENTRICITY":0.00013114,"INCLINATION":53.2179,"RA_OF_ASC_NODE":189.286,"ARG_OF_PERICENTER":72.931,"MEAN_ANOMALY":287.1826,"EPHEMERIS_TYPE":0,"CLASSIFICATION_TYPE":"U","NORAD_CAT_ID":52362,"ELEMENT_SET_NO":999,"REV_AT_EPOCH":21591,"BSTAR":-7.3986771e-5,"MEAN_MOTION_DOT":-1.465e-5,"MEAN_MOTION_DDOT":0},{"OBJECT_NAME":"COSMOS 886 DEB","OBJECT_ID":"1976-126S","EPOCH":"2026-03-09T21:56:14.599968","MEAN_MOTION":12.77359426,"ECCENTRICITY":0.10555572,"INCLINATION":65.8446,"RA_OF_ASC_NODE":295.88,"ARG_OF_PERICENTER":53.4024,"MEAN_ANOMALY":315.9492,"EPHEMERIS_TYPE":0,"CLASSIFICATION_TYPE":"U","NORAD_CAT_ID":9721,"ELEMENT_SET_NO":999,"REV_AT_EPOCH":28368,"BSTAR":0.00022738028,"MEAN_MOTION_DOT":5.23e-6,"MEAN_MOTION_DDOT":0}]
